[
    {
        "Altitude(m)": 607895.8510697016,
        "Argument of Periapsis(deg)": 0.0,
        "Eccentricity": 0.0,
        "Inclination(deg)": 60.0,
        "Latitude(deg)": 40.998430832499864,
        "Longitude(deg)": 60.08859520121438,
        "Mean Anomaly(deg)": 130.9091,
        "RAAN(deg)": 10.0,
        "Satellite Name": "Test1 52",
        "Satellite Number": 52,
        "Semi-Major Axis(m)": 6980739.136638005,
        "Time(s)": 0
    },
    {
        "Altitude(m)": 607795.1640154694,
        "Argument of Periapsis(deg)": 0.00010418945913296404,
        "Eccentricity": 0.0,
        "Inclination(deg)": 60.0,
        "Latitude(deg)": 40.530755602898154,
        "Longitude(deg)": 60.58519053426711,
        "Mean Anomaly(deg)": 131.5292061454618,
        "RAAN(deg)": 9.999579950860259,
        "Satellite Name": "Test1 52",
        "Satellite Number": 52,
        "Semi-Major Axis(m)": 6980739.136638005,
        "Time(s)": 10
    },
    {
        "Altitude(m)": 607694.6524954455,
        "Argument of Periapsis(deg)": 0.0002083789182659281,
        "Eccentricity": 0.0,
        "Inclination(deg)": 60.0,
        "Latitude(deg)": 40.060570408196014,
        "Longitude(deg)": 61.07434496307316,
        "Mean Anomaly(deg)": 132.14931229092366,
        "RAAN(deg)": 9.999159901720514,
        "Satellite Name": "Test1 52",
        "Satellite Number": 52,
        "Semi-Major Axis(m)": 6980739.136638005,
        "Time(s)": 20
    },
    {
        "Altitude(m)": 607594.3802083161,
        "Argument of Periapsis(deg)": 0.00031256837739889213,
        "Eccentricity": 0.0,
        "Inclination(deg)": 60.0,
        "Latitude(deg)": 39.587948822562865,
        "Longitude(deg)": 61.55624409406802,
        "Mean Anomaly(deg)": 132.7694184363855,
        "RAAN(deg)": 9.998739852580773,
        "Satellite Name": "Test1 52",
        "Satellite Number": 52,
        "Semi-Major Axis(m)": 6980739.136638005,
        "Time(s)": 30
    },
    {
        "Altitude(m)": 607494.4109531151,
        "Argument of Periapsis(deg)": 0.0004167578365318562,
        "Eccentricity": 0.0,
        "Inclination(deg)": 60.0,
        "Latitude(deg)": 39.112962179994916,
        "Longitude(deg)": 62.031070493774834,
        "Mean Anomaly(deg)": 133.38952458184733,
        "RAAN(deg)": 9.99831980344103,
        "Satellite Name": "Test1 52",
        "Satellite Number": 52,
        "Semi-Major Axis(m)": 6980739.136638005,
        "Time(s)": 40
    },
    {
        "Altitude(m)": 607394.8085973496,
        "Argument of Periapsis(deg)": 0.0005209472956648203,
        "Eccentricity": 0.0,
        "Inclination(deg)": 60.0,
        "Latitude(deg)": 38.63567964767476,
        "Longitude(deg)": 62.49900266835437,
        "Mean Anomaly(deg)": 134.00963072730917,
        "RAAN(deg)": 9.997899754301287,
        "Satellite Name": "Test1 52",
        "Satellite Number": 52,
        "Semi-Major Axis(m)": 6980739.136638005,
        "Time(s)": 50
    },
    {
        "Altitude(m)": 607295.6370449829,
        "Argument of Periapsis(deg)": 0.0006251367547977843,
        "Eccentricity": 0.0,
        "Inclination(deg)": 60.0,
        "Latitude(deg)": 38.156168297792895,
        "Longitude(deg)": 62.960215566847864,
        "Mean Anomaly(deg)": 134.629736872771,
        "RAAN(deg)": 9.997479705161545,
        "Satellite Name": "Test1 52",
        "Satellite Number": 52,
        "Semi-Major Axis(m)": 6980739.136638005,
        "Time(s)": 60
    },
    {
        "Altitude(m)": 607196.9602043803,
        "Argument of Periapsis(deg)": 0.0007293262139307483,
        "Eccentricity": 0.0,
        "Inclination(deg)": 60.0,
        "Latitude(deg)": 37.6744931777613,
        "Longitude(deg)": 63.414881094105084,
        "Mean Anomaly(deg)": 135.2498430182328,
        "RAAN(deg)": 9.9970596560218,
        "Satellite Name": "Test1 52",
        "Satellite Number": 52,
        "Semi-Major Axis(m)": 6980739.136638005,
        "Time(s)": 70
    },
    {
        "Altitude(m)": 607098.8419561838,
        "Argument of Periapsis(deg)": 0.0008335156730637124,
        "Eccentricity": 0.0,
        "Inclination(deg)": 60.0,
        "Latitude(deg)": 37.19071737876505,
        "Longitude(deg)": 63.8631671194758,
        "Mean Anomaly(deg)": 135.86994916369466,
        "RAAN(deg)": 9.99663960688206,
        "Satellite Name": "Test1 52",
        "Satellite Number": 52,
        "Semi-Major Axis(m)": 6980739.136638005,
        "Time(s)": 80
    },
    {
        "Altitude(m)": 607001.3461211652,
        "Argument of Periapsis(deg)": 0.0009377051321966765,
        "Eccentricity": 0.0,
        "Inclination(deg)": 60.0,
        "Latitude(deg)": 36.704902102615556,
        "Longitude(deg)": 64.30523800605398,
        "Mean Anomaly(deg)": 136.49005530915647,
        "RAAN(deg)": 9.996219557742315,
        "Satellite Name": "Test1 52",
        "Satellite Number": 52,
        "Semi-Major Axis(m)": 6980739.136638005,
        "Time(s)": 90
    },
    {
        "Altitude(m)": 606904.5364280205,
        "Argument of Periapsis(deg)": 0.0010418945913296407,
        "Eccentricity": 0.0,
        "Inclination(deg)": 60.0,
        "Latitude(deg)": 36.217106726875784,
        "Longitude(deg)": 64.7412551467174,
        "Mean Anomaly(deg)": 137.11016145461832,
        "RAAN(deg)": 9.995799508602573,
        "Satellite Name": "Test1 52",
        "Satellite Number": 52,
        "Semi-Major Axis(m)": 6980739.136638005,
        "Time(s)": 100
    },
    {
        "Altitude(m)": 606808.4764811962,
        "Argument of Periapsis(deg)": 0.0011460840504626045,
        "Eccentricity": 0.0,
        "Inclination(deg)": 60.0,
        "Latitude(deg)": 35.727388868239096,
        "Longitude(deg)": 65.17137599327704,
        "Mean Anomaly(deg)": 137.73026760008014,
        "RAAN(deg)": 9.99537945946283,
        "Satellite Name": "Test1 52",
        "Satellite Number": 52,
        "Semi-Major Axis(m)": 6980739.136638005,
        "Time(s)": 110
    },
    {
        "Altitude(m)": 606713.2297286852,
        "Argument of Periapsis(deg)": 0.0012502735095955685,
        "Eccentricity": 0.0,
        "Inclination(deg)": 60.0,
        "Latitude(deg)": 35.235804444156074,
        "Longitude(deg)": 65.59575460374788,
        "Mean Anomaly(deg)": 138.35037374554196,
        "RAAN(deg)": 9.994959410323089,
        "Satellite Name": "Test1 52",
        "Satellite Number": 52,
        "Semi-Major Axis(m)": 6980739.136638005,
        "Time(s)": 120
    },
    {
        "Altitude(m)": 606618.8594298706,
        "Argument of Periapsis(deg)": 0.0013544629687285324,
        "Eccentricity": 0.0,
        "Inclination(deg)": 60.0,
        "Latitude(deg)": 34.742407732708344,
        "Longitude(deg)": 66.01454219418868,
        "Mean Anomaly(deg)": 138.97047989100378,
        "RAAN(deg)": 9.994539361183346,
        "Satellite Name": "Test1 52",
        "Satellite Number": 52,
        "Semi-Major Axis(m)": 6980739.136638005,
        "Time(s)": 130
    },
    {
        "Altitude(m)": 606525.4286233921,
        "Argument of Periapsis(deg)": 0.0014586524278614966,
        "Eccentricity": 0.0,
        "Inclination(deg)": 60.0,
        "Latitude(deg)": 34.247251430734494,
        "Longitude(deg)": 66.42788618162088,
        "Mean Anomaly(deg)": 139.59058603646565,
        "RAAN(deg)": 9.994119312043603,
        "Satellite Name": "Test1 52",
        "Satellite Number": 52,
        "Semi-Major Axis(m)": 6980739.136638005,
        "Time(s)": 140
    },
    {
        "Altitude(m)": 606433.0000950771,
        "Argument of Periapsis(deg)": 0.0015628418869944607,
        "Eccentricity": 0.0,
        "Inclination(deg)": 60.0,
        "Latitude(deg)": 33.75038671022427,
        "Longitude(deg)": 66.83593074321537,
        "Mean Anomaly(deg)": 140.21069218192747,
        "RAAN(deg)": 9.99369926290386,
        "Satellite Name": "Test1 52",
        "Satellite Number": 52,
        "Semi-Major Axis(m)": 6980739.136638005,
        "Time(s)": 150
    },
    {
        "Altitude(m)": 606341.6363459289,
        "Argument of Periapsis(deg)": 0.0016670313461274247,
        "Eccentricity": 0.0,
        "Inclination(deg)": 60.0,
        "Latitude(deg)": 33.251863272998136,
        "Longitude(deg)": 67.23881737836321,
        "Mean Anomaly(deg)": 140.8307983273893,
        "RAAN(deg)": 9.993279213764117,
        "Satellite Name": "Test1 52",
        "Satellite Number": 52,
        "Semi-Major Axis(m)": 6980739.136638005,
        "Time(s)": 160
    },
    {
        "Altitude(m)": 606251.3995602091,
        "Argument of Periapsis(deg)": 0.0017712208052603888,
        "Eccentricity": 0.0,
        "Inclination(deg)": 60.0,
        "Latitude(deg)": 32.75172940369296,
        "Longitude(deg)": 67.63668396029465,
        "Mean Anomaly(deg)": 141.45090447285114,
        "RAAN(deg)": 9.992859164624374,
        "Satellite Name": "Test1 52",
        "Satellite Number": 52,
        "Semi-Major Axis(m)": 6980739.136638005,
        "Time(s)": 170
    },
    {
        "Altitude(m)": 606162.3515736246,
        "Argument of Periapsis(deg)": 0.001875410264393353,
        "Eccentricity": 0.0,
        "Inclination(deg)": 60.0,
        "Latitude(deg)": 32.250032021084564,
        "Longitude(deg)": 68.02966530257798,
        "Mean Anomaly(deg)": 142.07101061831295,
        "RAAN(deg)": 9.992439115484633,
        "Satellite Name": "Test1 52",
        "Satellite Number": 52,
        "Semi-Major Axis(m)": 6980739.136638005,
        "Time(s)": 180
    },
    {
        "Altitude(m)": 606074.5538416037,
        "Argument of Periapsis(deg)": 0.0019795997235263173,
        "Eccentricity": 0.0,
        "Inclination(deg)": 60.0,
        "Latitude(deg)": 31.7468167277746,
        "Longitude(deg)": 68.41789372724801,
        "Mean Anomaly(deg)": 142.69111676377477,
        "RAAN(deg)": 9.992019066344888,
        "Satellite Name": "Test1 52",
        "Satellite Number": 52,
        "Semi-Major Axis(m)": 6980739.136638005,
        "Time(s)": 190
    }
]